[{"OBJECT_NAME":"FLOCK 4G-28","OBJECT_ID":"2025-009AB","EPOCH":"2026-03-09T04:28:42.447360","MEAN_MOTION":15.33074282,"ECCENTRICITY":9.115e-5,"INCLINATION":97.4053,"RA_OF_ASC_NODE":152.4797,"ARG_OF_PERICENTER":349.2155,"MEAN_ANOMALY":10.9068,"EPHEMERIS_TYPE":0,"CLASSIFICATION_TYPE":"U","NORAD_CAT_ID":62634,"ELEMENT_SET_NO":999,"REV_AT_EPOCH":6375,"BSTAR":0.00037255428,"MEAN_MOTION_DOT":0.0001183,"MEAN_MOTION_DDOT":0},{"OBJECT_NAME":"STARLINK-35594","OBJECT_ID":"2025-240M","EPOCH":"2026-03-09T08:52:35.921280","MEAN_MOTION":15.30198855,"ECCENTRICITY":0.0001623,"INCLINATION":53.1614,"RA_OF_ASC_NODE":64.0013,"ARG_OF_PERICENTER":75.4773,"MEAN_ANOMALY":284.6408,"EPHEMERIS_TYPE":0,"CLASSIFICATION_TYPE":"U","NORAD_CAT_ID":66157,"ELEMENT_SET_NO":999,"REV_AT_EPOCH":2194,"BSTAR":0.0014099038,"MEAN_MOTION_DOT":0.00041631,"MEAN_MOTION_DDOT":0}]
